{"type": "FeatureCollection", "features": [ {"type": "Feature", "properties": {"norad_id": 38953, "name": "BEIDOU-2 G6 (C02)", "group": "beidou", "lat": -2.910346922871258, "lon": -57.094159708545575, "alt_km": 35772.11108990571, "timestamp": "2025-12-06T09:34:17.178861+00:00", "meta": {"OBJECT_NAME": "BEIDOU-2 G6 (C02)", "OBJECT_ID": "2012-059A", "EPOCH": "2025-12-05T22:01:51.844224", "MEAN_MOTION": 1.00270335, "ECCENTRICITY": 0.00075063, "INCLINATION": 3.931, "RA_OF_ASC_NODE": 75.5698, "ARG_OF_PERICENTER": 289.2609, "MEAN_ANOMALY": 124.6462, "EPHEMERIS_TYPE": 0, "CLASSIFICATION_TYPE": "U", "NORAD_CAT_ID": 38953, "ELEMENT_SET_NO": 999, "REV_AT_EPOCH": 4797, "BSTAR": 0, "MEAN_MOTION_DOT": -1.68e-06, "MEAN_MOTION_DDOT": 0}, "tle": {"line1": "1 38953U 12059A   25339.91796116 -.00000168  00000+0  00000+0 0  9991", "line2": "2 38953   3.9310  75.5698 0007506 289.2609 124.6462  1.00270335 47973"}}, "geometry": {"type": "Point", "coordinates": [-57.094159708545575, -2.910346922871258]}}, {"type": "Feature", "properties": {"norad_id": 40748, "name": "BEIDOU-3S M2S (C58)", "group": "beidou", "lat": -51.71165274640388, "lon": -169.01779090492582, "alt_km": 21500.365412218503, "timestamp": "2025-12-06T09:34:17.178872+00:00", "meta": {"OBJECT_NAME": "BEIDOU-3S M2S (C58)", "OBJECT_ID": "2015-037A", "EPOCH": "2025-12-04T09:50:19.277376", "MEAN_MOTION": 1.86229056, "ECCENTRICITY": 0.00124004, "INCLINATION": 55.0462, "RA_OF_ASC_NODE": 308.7497, "ARG_OF_PERICENTER": 267.6151, "MEAN_ANOMALY": 92.2259, "EPHEMERIS_TYPE": 0, "CLASSIFICATION_TYPE": "U", "NORAD_CAT_ID": 40748, "ELEMENT_SET_NO": 999, "REV_AT_EPOCH": 7049, "BSTAR": 0, "MEAN_MOTION_DOT": -6.8e-07, "MEAN_MOTION_DDOT": 0}, "tle": {"line1": "1 40748U 15037A   25338.40994534 -.00000068  00000+0  00000+0 0  9991", "line2": "2 40748  55.0462 308.7497 0012400 267.6151  92.2259  1.86229056 70498"}}, "geometry": {"type": "Point", "coordinates": [-169.01779090492582, -51.71165274640388]}}, {"type": "Feature", "properties": {"norad_id": 40749, "name": "BEIDOU-3S M1S (C57)", "group": "beidou", "lat": 54.13129530594963, "lon": 53.409510893494364, "alt_km": 21521.49826297656, "timestamp": "2025-12-06T09:34:17.178883+00:00", "meta": {"OBJECT_NAME": "BEIDOU-3S M1S (C57)", "OBJECT_ID": "2015-037B", "EPOCH": "2025-12-01T22:57:46.412352", "MEAN_MOTION": 1.86253762, "ECCENTRICITY": 0.0003321, "INCLINATION": 55.0451, "RA_OF_ASC_NODE": 308.8236, "ARG_OF_PERICENTER": 355.9906, "MEAN_ANOMALY": 3.9975, "EPHEMERIS_TYPE": 0, "CLASSIFICATION_TYPE": "U", "NORAD_CAT_ID": 40749, "ELEMENT_SET_NO": 999, "REV_AT_EPOCH": 7045, "BSTAR": 0, "MEAN_MOTION_DOT": -6e-07, "MEAN_MOTION_DDOT": 0}, "tle": {"line1": "1 40749U 15037B   25335.95678718 -.00000060  00000+0  00000+0 0  9994", "line2": "2 40749  55.0451 308.8236 0003321 355.9906   3.9975  1.86253762 70451"}}, "geometry": {"type": "Point", "coordinates": [53.409510893494364, 54.13129530594963]}}, {"type": "Feature", "properties": {"norad_id": 40938, "name": "BEIDOU-3S IGSO-2S (C56)", "group": "beidou", "lat": 37.719997420074165, "lon": -57.719967404416884, "alt_km": 35964.28336067627, "timestamp": "2025-12-06T09:34:17.178895+00:00", "meta": {"OBJECT_NAME": "BEIDOU-3S IGSO-2S (C56)", "OBJECT_ID": "2015-053A", "EPOCH": "2025-12-03T17:17:32.013024", "MEAN_MOTION": 1.0027148, "ECCENTRICITY": 0.00611089, "INCLINATION": 49.5266, "RA_OF_ASC_NODE": 261.1136, "ARG_OF_PERICENTER": 188.632, "MEAN_ANOMALY": 338.5579, "EPHEMERIS_TYPE": 0, "CLASSIFICATION_TYPE": "U", "NORAD_CAT_ID": 40938, "ELEMENT_SET_NO": 999, "REV_AT_EPOCH": 3739, "BSTAR": 0, "MEAN_MOTION_DOT": -1.53e-06, "MEAN_MOTION_DDOT": 0}, "tle": {"line1": "1 40938U 15053A   25337.72050941 -.00000153  00000+0  00000+0 0  9994", "line2": "2 40938  49.5266 261.1136 0061108 188.6320 338.5579  1.00271480 37397"}}, "geometry": {"type": "Point", "coordinates": [-57.719967404416884, 37.719997420074165]}}, {"type": "Feature", "properties": {"norad_id": 41434, "name": "BEIDOU-2 IGSO-6 (C13)", "group": "beidou", "lat": -59.96014365877964, "lon": -47.84281186960286, "alt_km": 35604.340530103866, "timestamp": "2025-12-06T09:34:17.178918+00:00", "meta": {"OBJECT_NAME": "BEIDOU-2 IGSO-6 (C13)", "OBJECT_ID": "2016-021A", "EPOCH": "2025-12-01T15:57:35.287200", "MEAN_MOTION": 1.00256562, "ECCENTRICITY": 0.00591323, "INCLINATION": 59.9483, "RA_OF_ASC_NODE": 40.0119, "ARG_OF_PERICENTER": 231.2834, "MEAN_ANOMALY": 130.8807, "EPHEMERIS_TYPE": 0, "CLASSIFICATION_TYPE": "U", "NORAD_CAT_ID": 41434, "ELEMENT_SET_NO": 999, "REV_AT_EPOCH": 3550, "BSTAR": 0, "MEAN_MOTION_DOT": -1.55e-06, "MEAN_MOTION_DDOT": 0}, "tle": {"line1": "1 41434U 16021A   25335.66499175 -.00000155  00000+0  00000+0 0  9991", "line2": "2 41434  59.9483  40.0119 0059132 231.2834 130.8807  1.00256562 35501"}}, "geometry": {"type": "Point", "coordinates": [-47.84281186960286, -59.96014365877964]}}, {"type": "Feature", "properties": {"norad_id": 41586, "name": "BEIDOU-2 G7 (C03)", "group": "beidou", "lat": -1.7257795524454733, "lon": -30.567235361774852, "alt_km": 35790.15019847499, "timestamp": "2025-12-06T09:34:17.178939+00:00", "meta": {"OBJECT_NAME": "BEIDOU-2 G7 (C03)", "OBJECT_ID": "2016-037A", "EPOCH": "2025-12-05T20:41:51.660672", "MEAN_MOTION": 1.00270381, "ECCENTRICITY": 0.00043597, "INCLINATION": 1.7393, "RA_OF_ASC_NODE": 67.7286, "ARG_OF_PERICENTER": 2.1594, "MEAN_ANOMALY": 65.975, "EPHEMERIS_TYPE": 0, "CLASSIFICATION_TYPE": "U", "NORAD_CAT_ID": 41586, "ELEMENT_SET_NO": 999, "REV_AT_EPOCH": 495, "BSTAR": 0, "MEAN_MOTION_DOT": -3.45e-06, "MEAN_MOTION_DDOT": 0}, "tle": {"line1": "1 41586U 16037A   25339.86240348 -.00000345  00000+0  00000+0 0  9999", "line2": "2 41586   1.7393  67.7286 0004359   2.1594  65.9750  1.00270381  4959"}}, "geometry": {"type": "Point", "coordinates": [-30.567235361774852, -1.7257795524454733]}}, {"type": "Feature", "properties": {"norad_id": 43001, "name": "BEIDOU-3 M1 (C19)", "group": "beidou", "lat": 18.15811998435743, "lon": 81.96704955572834, "alt_km": 21520.912934790704, "timestamp": "2025-12-06T09:34:17.178952+00:00", "meta": {"OBJECT_NAME": "BEIDOU-3 M1 (C19)", "OBJECT_ID": "2017-069A", "EPOCH": "2025-12-03T03:27:53.485056", "MEAN_MOTION": 1.86230745, "ECCENTRICITY": 0.00088373, "INCLINATION": 56.5186, "RA_OF_ASC_NODE": 69.5514, "ARG_OF_PERICENTER": 303.7187, "MEAN_ANOMALY": 56.1997, "EPHEMERIS_TYPE": 0, "CLASSIFICATION_TYPE": "U", "NORAD_CAT_ID": 43001, "ELEMENT_SET_NO": 999, "REV_AT_EPOCH": 5495, "BSTAR": 0, "MEAN_MOTION_DOT": -4.9e-07, "MEAN_MOTION_DDOT": 0}, "tle": {"line1": "1 43001U 17069A   25337.14436904 -.00000049  00000+0  00000+0 0  9994", "line2": "2 43001  56.5186  69.5514 0008837 303.7187  56.1997  1.86230745 54952"}}, "geometry": {"type": "Point", "coordinates": [81.96704955572834, 18.15811998435743]}}, {"type": "Feature", "properties": {"norad_id": 43002, "name": "BEIDOU-3 M2 (C20)", "group": "beidou", "lat": 48.190707652698194, "lon": 117.11309076620842, "alt_km": 21522.831849947535, "timestamp": "2025-12-06T09:34:17.178964+00:00", "meta": {"OBJECT_NAME": "BEIDOU-3 M2 (C20)", "OBJECT_ID": "2017-069B", "EPOCH": "2025-12-04T16:38:46.347936", "MEAN_MOTION": 1.862306, "ECCENTRICITY": 0.00062566, "INCLINATION": 56.5195, "RA_OF_ASC_NODE": 69.536, "ARG_OF_PERICENTER": 331.7329, "MEAN_ANOMALY": 28.2399, "EPHEMERIS_TYPE": 0, "CLASSIFICATION_TYPE": "U", "NORAD_CAT_ID": 43002, "ELEMENT_SET_NO": 999, "REV_AT_EPOCH": 5497, "BSTAR": 0, "MEAN_MOTION_DOT": -4.9e-07, "MEAN_MOTION_DDOT": 0}, "tle": {"line1": "1 43002U 17069B   25338.69359199 -.00000049  00000+0  00000+0 0  9996", "line2": "2 43002  56.5195  69.5360 0006256 331.7329  28.2399  1.86230600 54972"}}, "geometry": {"type": "Point", "coordinates": [117.11309076620842, 48.190707652698194]}}, {"type": "Feature", "properties": {"norad_id": 43107, "name": "BEIDOU-3 M7 (C27)", "group": "beidou", "lat": -42.17345514139604, "lon": 169.26590714680495, "alt_km": 21539.975581086626, "timestamp": "2025-12-06T09:34:17.178975+00:00", "meta": {"OBJECT_NAME": "BEIDOU-3 M7 (C27)", "OBJECT_ID": "2018-003A", "EPOCH": "2025-12-04T23:22:06.674304", "MEAN_MOTION": 1.86232224, "ECCENTRICITY": 0.00026381, "INCLINATION": 54.5036, "RA_OF_ASC_NODE": 309.0851, "ARG_OF_PERICENTER": 70.1822, "MEAN_ANOMALY": 289.8293, "EPHEMERIS_TYPE": 0, "CLASSIFICATION_TYPE": "U", "NORAD_CAT_ID": 43107, "ELEMENT_SET_NO": 999, "REV_AT_EPOCH": 5373, "BSTAR": 0, "MEAN_MOTION_DOT": -7e-07, "MEAN_MOTION_DDOT": 0}, "tle": {"line1": "1 43107U 18003A   25338.97368836 -.00000070  00000+0  00000+0 0  9994", "line2": "2 43107  54.5036 309.0851 0002638  70.1822 289.8293  1.86232224 53734"}}, "geometry": {"type": "Point", "coordinates": [169.26590714680495, -42.17345514139604]}}, {"type": "Feature", "properties": {"norad_id": 43108, "name": "BEIDOU-3 M8 (C28)", "group": "beidou", "lat": -54.4216469783308, "lon": -136.8393267505388, "alt_km": 21520.524644393878, "timestamp": "2025-12-06T09:34:17.178986+00:00", "meta": {"OBJECT_NAME": "BEIDOU-3 M8 (C28)", "OBJECT_ID": "2018-003B", "EPOCH": "2025-12-03T20:16:15.436704", "MEAN_MOTION": 1.86230755, "ECCENTRICITY": 0.0004789, "INCLINATION": 54.4975, "RA_OF_ASC_NODE": 309.1071, "ARG_OF_PERICENTER": 274.2636, "MEAN_ANOMALY": 85.6663, "EPHEMERIS_TYPE": 0, "CLASSIFICATION_TYPE": "U", "NORAD_CAT_ID": 43108, "ELEMENT_SET_NO": 999, "REV_AT_EPOCH": 5372, "BSTAR": 0, "MEAN_MOTION_DOT": -6.8e-07, "MEAN_MOTION_DDOT": 0}, "tle": {"line1": "1 43108U 18003B   25337.84462311 -.00000068  00000+0  00000+0 0  9990", "line2": "2 43108  54.4975 309.1071 0004789 274.2636  85.6663  1.86230755 53729"}}, "geometry": {"type": "Point", "coordinates": [-136.8393267505388, -54.4216469783308]}}]}